{
    "links": {
        "self": "http://www.neowsapp.com/rest/v1/neo/3567996?api_key=iIulBulltgU6a56xZRHN4H3l9WmuAYTsLGpBGhQ2"
    },
    "id": "3567996",
    "neo_reference_id": "3567996",
    "name": "(2011 LK19)",
    "designation": "2011 LK19",
    "nasa_jpl_url": "http://ssd.jpl.nasa.gov/sbdb.cgi?sstr=3567996",
    "absolute_magnitude_h": 22.4,
    "estimated_diameter": {
        "kilometers": {
            "estimated_diameter_min": 0.0880146521,
            "estimated_diameter_max": 0.1968067451
        },
        "meters": {
            "estimated_diameter_min": 88.0146520901,
            "estimated_diameter_max": 196.8067450894
        },
        "miles": {
            "estimated_diameter_min": 0.0546897524,
            "estimated_diameter_max": 0.122290004
        },
        "feet": {
            "estimated_diameter_min": 288.7619911632,
            "estimated_diameter_max": 645.6914415591
        }
    },
    "is_potentially_hazardous_asteroid": false,
    "close_approach_data": [
        {
            "close_approach_date": "2011-06-03",
            "close_approach_date_full": "2011-Jun-03 09:39",
            "epoch_date_close_approach": 1307093940000,
            "relative_velocity": {
                "kilometers_per_second": "17.5385774371",
                "kilometers_per_hour": "63138.8787733991",
                "miles_per_hour": "39232.043868949"
            },
            "miss_distance": {
                "astronomical": "0.1698032873",
                "lunar": "66.0534787597",
                "kilometers": "25402210.099078051",
                "miles": "15784201.4324210638"
            },
            "orbiting_body": "Earth"
        }
    ],
    "orbital_data": {
        "orbit_id": "11",
        "orbit_determination_date": "2017-04-06 08:53:17",
        "first_observation_date": "2011-06-09",
        "last_observation_date": "2011-07-07",
        "data_arc_in_days": 28,
        "observations_used": 35,
        "orbit_uncertainty": "7",
        "minimum_orbit_intersection": ".163845",
        "jupiter_tisserand_invariant": "4.028",
        "epoch_osculation": "2459000.5",
        "eccentricity": ".2997180725161589",
        "semi_major_axis": "1.662846072213977",
        "inclination": "33.55347803724831",
        "ascending_node_longitude": "254.6207421435458",
        "orbital_period": "783.2068916092902",
        "perihelion_distance": "1.164461052558938",
        "perihelion_argument": "340.6059407623215",
        "aphelion_distance": "2.161231091869015",
        "perihelion_time": "2458827.744260269216",
        "mean_anomaly": "79.40694466476575",
        "mean_motion": ".4596486622586938",
        "equinox": "J2000",
        "orbit_class": {
            "orbit_class_type": "AMO",
            "orbit_class_description": "Near-Earth asteroid orbits similar to that of 1221 Amor",
            "orbit_class_range": "1.017 AU < q (perihelion) < 1.3 AU"
        }
    },
    "is_sentry_object": false
}